STARLINK-37139          
1 68317U 26057Z   26093.58336806 -.01692567  00000+0 -73404-2 0  9991
2 68317  97.2735 217.1921 0001660  69.1060 112.3289 15.87633367  3017
STARLINK-37113          
1 68318U 26057AA  26093.58336806 -.01711558  00000+0 -74605-2 0  9998
2 68318  97.2731 217.1962 0001677  66.8046 124.0042 15.87565412  3264
PROGRESS-MS 33          
1 68319U 26058A   26093.87567842  .00012431  00000+0  23534-3 0  9995
2 68319  51.6327 307.8415 0006253 268.9169  91.1103 15.48754008  1714
STARLINK-36987          
1 68321U 26059A   26093.79105896  .00524315  00000+0  24871-2 0  9990
2 68321  53.1593 237.0928 0001071  64.1086 296.0047 15.81002444  1944
STARLINK-37088          
1 68322U 26059B   26093.85278218  .00682732  00000+0  31722-2 0  9998
2 68322  53.1589 236.7654 0001630  36.6236 323.4898 15.81041274  1958
STARLINK-36983          
1 68323U 26059C   26093.79031120  .00549536  00000+0  26004-2 0  9992
2 68323  53.1587 237.0876 0001107  81.1300 278.9848 15.80989623  1949
STARLINK-37164          
1 68324U 26059D   26093.85203043  .00682125  00000+0  31667-2 0  9998
2 68324  53.1586 236.7602 0001279  82.1189 277.9979 15.81060191  3080
STARLINK-36309          
1 68325U 26059E   26093.78805634  .00260500  00000+0  12823-2 0  9997
2 68325  53.1600 237.0729 0002576 163.2763 196.8345 15.80899895  1941
STARLINK-37206          
1 68326U 26059F   26093.85052969  .00377504  00000+0  18272-2 0  9998
2 68326  53.1594 236.7499 0001602 148.2423 211.8696 15.80951445  1957
STARLINK-37199          
1 68327U 26059G   26093.84976526  .00374369  00000+0  18099-2 0  9995
2 68327  53.1590 236.7452 0003200  70.6200 289.5169 15.80983910  1959
STARLINK-36245          
1 68328U 26059H   26093.78506186  .00350986  00000+0  17063-2 0  9999
2 68328  53.1600 237.0521 0000910  93.6630 266.4497 15.80926286  1940
STARLINK-37204          
1 68329U 26059J   26093.78581164  .00383411  00000+0  18556-2 0  9996
2 68329  53.1601 237.0578 0000671  84.7573 275.3526 15.80936615  1944
STARLINK-37001          
1 68330U 26059K   26093.78430441  .00537266  00000+0  25439-2 0  9996
2 68330  53.1599 237.0471 0000865  94.4984 265.6138 15.81007337  1945
STARLINK-36932          
1 68331U 26059L   26093.78355323  .00446305  00000+0  21408-2 0  9997
2 68331  53.1599 237.0419 0001069 131.6929 228.4185 15.80964848  1945
STARLINK-37205          
1 68332U 26059M   26093.78280451  .00513574  00000+0  24398-2 0  9991
2 68332  53.1596 237.0368 0001271  55.1309 304.9833 15.80998335  1941
STARLINK-37180          
1 68333U 26059N   26093.78205855  .00448410  00000+0  21511-2 0  9997
2 68333  53.1597 237.0315 0001245 145.0278 215.0827 15.80957496  1948
STARLINK-37191          
1 68334U 26059P   26093.78131034  .00522883  00000+0  24842-2 0  9992
2 68334  53.1599 237.0268 0001282 147.2418 212.8685 15.80972872  1941
